start=new Date('2022-05-19T00:00:00.000Z').valueOf();
sats=[{"REF_FRAME":"TEME","MEAN_MOTION_DOT":"-0.00000023","FILE":"3452356","EPHEMERIS_TYPE":"0","GP_ID":"203905471","RA_OF_ASC_NODE":"305.7684","REV_AT_EPOCH":"5698","OBJECT_ID":"2021-040X","LAUNCH_DATE":"2021-05-09","MEAN_ELEMENT_THEORY":"SGP4","TLE_LINE2":"2 48449  53.0556 305.7684 0001445  71.9624 288.1522 15.06403882 56984","OBJECT_TYPE":"PAYLOAD","SITE":"AFETR","TLE_LINE1":"1 48449U 21040X   22138.75538716 -.00000023  00000-0  17327-4 0  9994","EPOCH":"2022-05-18T18:07:45.450624","DECAY_DATE":null,"PERIAPSIS":"546.201","APOAPSIS":"548.202","ECCENTRICITY":"0.00014450","MEAN_ANOMALY":"288.1522","CLASSIFICATION_TYPE":"U","COUNTRY_CODE":"US","CENTER_NAME":"EARTH","PERIOD":"95.592","NORAD_CAT_ID":"48449","RCS_SIZE":"LARGE","OBJECT_NAME":"STARLINK-2655","MEAN_MOTION_DDOT":"0.0000000000000","BSTAR":"0.00001732700000","ELEMENT_SET_NO":"999","INCLINATION":"53.0556","ARG_OF_PERICENTER":"71.9624","TIME_SYSTEM":"UTC","MEAN_MOTION":"15.06403882","SEMIMAJOR_AXIS":"6925.337"},{"FILE":"3452356","EPHEMERIS_TYPE":"0","MEAN_MOTION_DOT":"0.00000475","REF_FRAME":"TEME","REV_AT_EPOCH":"5698","GP_ID":"203904220","RA_OF_ASC_NODE":"305.7872","LAUNCH_DATE":"2021-05-09","OBJECT_ID":"2021-040Y","MEAN_ELEMENT_THEORY":"SGP4","TLE_LINE2":"2 48450  53.0532 305.7872 0001681  58.4006 301.7146 15.06397857 56983","OBJECT_TYPE":"PAYLOAD","TLE_LINE1":"1 48450U 21040Y   22138.75170281  .00000475  00000-0  50802-4 0  9990","EPOCH":"2022-05-18T18:02:27.122784","SITE":"AFETR","APOAPSIS":"548.384","DECAY_DATE":null,"PERIAPSIS":"546.056","MEAN_ANOMALY":"301.7146","ECCENTRICITY":"0.00016810","PERIOD":"95.592","CENTER_NAME":"EARTH","COUNTRY_CODE":"US","CLASSIFICATION_TYPE":"U","RCS_SIZE":"LARGE","NORAD_CAT_ID":"48450","OBJECT_NAME":"STARLINK-2660","BSTAR":"0.00005080200000","MEAN_MOTION_DDOT":"0.0000000000000","TIME_SYSTEM":"UTC","ARG_OF_PERICENTER":"58.4006","ELEMENT_SET_NO":"999","INCLINATION":"53.0532","SEMIMAJOR_AXIS":"6925.355","MEAN_MOTION":"15.06397857"},{"REF_FRAME":"TEME","MEAN_MOTION_DOT":"-0.00053093","EPHEMERIS_TYPE":"0","FILE":"3452356","OBJECT_ID":"2021-040Z","LAUNCH_DATE":"2021-05-09","REV_AT_EPOCH":"5699","RA_OF_ASC_NODE":"305.5055","GP_ID":"203904470","OBJECT_TYPE":"PAYLOAD","MEAN_ELEMENT_THEORY":"SGP4","TLE_LINE2":"2 48451  53.0548 305.5055 0001394  73.8973 286.2169 15.05946605 56990","PERIAPSIS":"547.638","DECAY_DATE":null,"APOAPSIS":"549.569","SITE":"AFETR","TLE_LINE1":"1 48451U 21040Z   22138.81485652 -.00053093  00000-0 -36162-2 0  9996","EPOCH":"2022-05-18T19:33:23.603328","COUNTRY_CODE":"US","CLASSIFICATION_TYPE":"U","PERIOD":"95.621","CENTER_NAME":"EARTH","MEAN_ANOMALY":"286.2169","ECCENTRICITY":"0.00013940","RCS_SIZE":"LARGE","NORAD_CAT_ID":"48451","MEAN_MOTION_DDOT":"0.0000000000000","BSTAR":"-0.00361620000000","OBJECT_NAME":"STARLINK-2652","SEMIMAJOR_AXIS":"6926.738","MEAN_MOTION":"15.05946605","TIME_SYSTEM":"UTC","ELEMENT_SET_NO":"999","ARG_OF_PERICENTER":"73.8973","INCLINATION":"53.0548"},{"RCS_SIZE":"LARGE","NORAD_CAT_ID":"48452","MEAN_ANOMALY":"262.4487","ECCENTRICITY":"0.00006970","CENTER_NAME":"EARTH","PERIOD":"95.542","COUNTRY_CODE":"US","CLASSIFICATION_TYPE":"U","TIME_SYSTEM":"UTC","ELEMENT_SET_NO":"999","ARG_OF_PERICENTER":"97.6582","INCLINATION":"53.0545","SEMIMAJOR_AXIS":"6922.937","MEAN_MOTION":"15.07187255","OBJECT_NAME":"STARLINK-2703","BSTAR":"-0.00022405000000","MEAN_MOTION_DDOT":"0.0000000000000","REV_AT_EPOCH":"5822","GP_ID":"203844700","RA_OF_ASC_NODE":"306.9656","LAUNCH_DATE":"2021-05-09","OBJECT_ID":"2021-040AA","EPHEMERIS_TYPE":"0","FILE":"3451653","MEAN_MOTION_DOT":"-0.00003691","REF_FRAME":"TEME","EPOCH":"2022-05-18T11:35:09.125664","TLE_LINE1":"1 48452U 21040AA  22138.48274451 -.00003691  00000-0 -22405-3 0  9998","SITE":"AFETR","APOAPSIS":"545.284","DECAY_DATE":null,"PERIAPSIS":"544.319","MEAN_ELEMENT_THEORY":"SGP4","TLE_LINE2":"2 48452  53.0545 306.9656 0000697  97.6582 262.4487 15.07187255 58222","OBJECT_TYPE":"PAYLOAD"},{"ECCENTRICITY":"0.00015510","MEAN_ANOMALY":"284.8859","PERIOD":"95.592","CENTER_NAME":"EARTH","CLASSIFICATION_TYPE":"U","COUNTRY_CODE":"US","NORAD_CAT_ID":"48453","RCS_SIZE":"LARGE","OBJECT_NAME":"STARLINK-2620","BSTAR":"0.00020923000000","MEAN_MOTION_DDOT":"0.0000000000000","ELEMENT_SET_NO":"999","ARG_OF_PERICENTER":"75.2302","INCLINATION":"53.0569","TIME_SYSTEM":"UTC","MEAN_MOTION":"15.06403140","SEMIMAJOR_AXIS":"6925.339","EPHEMERIS_TYPE":"0","FILE":"3452356","REF_FRAME":"TEME","MEAN_MOTION_DOT":"0.00002837","GP_ID":"203905971","RA_OF_ASC_NODE":"305.8085","REV_AT_EPOCH":"5698","LAUNCH_DATE":"2021-05-09","OBJECT_ID":"2021-040AB","TLE_LINE2":"2 48453  53.0569 305.8085 0001551  75.2302 284.8859 15.06403140 56980","MEAN_ELEMENT_THEORY":"SGP4","OBJECT_TYPE":"PAYLOAD","TLE_LINE1":"1 48453U 21040AB  22138.74433356  .00002837  00000-0  20923-3 0  9991","EPOCH":"2022-05-18T17:51:50.419584","SITE":"AFETR","APOAPSIS":"548.278","DECAY_DATE":null,"PERIAPSIS":"546.130"},{"MEAN_MOTION":"15.06401093","SEMIMAJOR_AXIS":"6925.345","INCLINATION":"53.0545","ELEMENT_SET_NO":"999","ARG_OF_PERICENTER":"70.2532","TIME_SYSTEM":"UTC","MEAN_MOTION_DDOT":"0.0000000000000","BSTAR":"0.00007519400000","OBJECT_NAME":"STARLINK-2654","NORAD_CAT_ID":"48454","RCS_SIZE":"LARGE","CLASSIFICATION_TYPE":"U","COUNTRY_CODE":"US","PERIOD":"95.592","CENTER_NAME":"EARTH","ECCENTRICITY":"0.00013620","MEAN_ANOMALY":"289.8604","DECAY_DATE":null,"PERIAPSIS":"546.267","APOAPSIS":"548.153","SITE":"AFETR","TLE_LINE1":"1 48454U 21040AC  22138.80699355  .00000839  00000-0  75194-4 0  9993","EPOCH":"2022-05-18T19:22:04.242720","OBJECT_TYPE":"PAYLOAD","MEAN_ELEMENT_THEORY":"SGP4","TLE_LINE2":"2 48454  53.0545 305.5477 0001362  70.2532 289.8604 15.06401093 56996","OBJECT_ID":"2021-040AC","LAUNCH_DATE":"2021-05-09","GP_ID":"203904720","RA_OF_ASC_NODE":"305.5477","REV_AT_EPOCH":"5699","MEAN_MOTION_DOT":"0.00000839","REF_FRAME":"TEME","EPHEMERIS_TYPE":"0","FILE":"3452356"},{"MEAN_MOTION_DOT":"0.00001114","REF_FRAME":"TEME","EPHEMERIS_TYPE":"0","FILE":"3452356","REV_AT_EPOCH":"5699","RA_OF_ASC_NODE":"305.2430","GP_ID":"203904969","OBJECT_ID":"2021-040AD","LAUNCH_DATE":"2021-05-09","MEAN_ELEMENT_THEORY":"SGP4","TLE_LINE2":"2 48455  53.0535 305.2430 0001683  73.5198 286.5976 15.06401023 56991","OBJECT_TYPE":"PAYLOAD","SITE":"AFETR","TLE_LINE1":"1 48455U 21040AD  22138.86965419  .00001114  00000-0  93681-4 0  9995","EPOCH":"2022-05-18T20:52:18.122016","DECAY_DATE":null,"PERIAPSIS":"546.045","APOAPSIS":"548.376","MEAN_ANOMALY":"286.5976","ECCENTRICITY":"0.00016830","COUNTRY_CODE":"US","CLASSIFICATION_TYPE":"U","PERIOD":"95.592","CENTER_NAME":"EARTH","RCS_SIZE":"LARGE","NORAD_CAT_ID":"48455","OBJECT_NAME":"STARLINK-2497","MEAN_MOTION_DDOT":"0.0000000000000","BSTAR":"0.00009368100000","TIME_SYSTEM":"UTC","ELEMENT_SET_NO":"999","INCLINATION":"53.0535","ARG_OF_PERICENTER":"73.5198","SEMIMAJOR_AXIS":"6925.345","MEAN_MOTION":"15.06401023"},{"LAUNCH_DATE":"2021-05-09","OBJECT_ID":"2021-040AE","REV_AT_EPOCH":"5697","GP_ID":"203905221","RA_OF_ASC_NODE":"305.8677","EPHEMERIS_TYPE":"0","FILE":"3452356","MEAN_MOTION_DOT":"0.00003758","REF_FRAME":"TEME","APOAPSIS":"548.340","PERIAPSIS":"546.070","DECAY_DATE":null,"TLE_LINE1":"1 48456U 21040AE  22138.73327098  .00003758  00000-0  27102-3 0  9997","EPOCH":"2022-05-18T17:35:54.612672","SITE":"AFETR","OBJECT_TYPE":"PAYLOAD","TLE_LINE2":"2 48456  53.0561 305.8677 0001639  63.6315 296.4842 15.06402689 56971","MEAN_ELEMENT_THEORY":"SGP4","RCS_SIZE":"LARGE","NORAD_CAT_ID":"48456","PERIOD":"95.592","CENTER_NAME":"EARTH","COUNTRY_CODE":"US","CLASSIFICATION_TYPE":"U","MEAN_ANOMALY":"296.4842","ECCENTRICITY":"0.00016390","SEMIMAJOR_AXIS":"6925.340","MEAN_MOTION":"15.06402689","TIME_SYSTEM":"UTC","INCLINATION":"53.0561","ELEMENT_SET_NO":"999","ARG_OF_PERICENTER":"63.6315","BSTAR":"0.00027102000000","MEAN_MOTION_DDOT":"0.0000000000000","OBJECT_NAME":"STARLINK-2508"},{"EPHEMERIS_TYPE":"0","FILE":"3452356","REF_FRAME":"TEME","MEAN_MOTION_DOT":"0.00002734","LAUNCH_DATE":"2021-05-09","OBJECT_ID":"2021-040AG","GP_ID":"203905472","RA_OF_ASC_NODE":"310.8521","REV_AT_EPOCH":"5762","OBJECT_TYPE":"PAYLOAD","MEAN_ELEMENT_THEORY":"SGP4","TLE_LINE2":"2 48458  53.0555 310.8521 0001626  71.8820 288.2346 15.06400948 57625","APOAPSIS":"548.337","DECAY_DATE":null,"PERIAPSIS":"546.085","TLE_LINE1":"1 48458U 21040AG  22138.73740061  .00002734  00000-0  20237-3 0  9993","EPOCH":"2022-05-18T17:41:51.412704","SITE":"AFETR","CENTER_NAME":"EARTH","PERIOD":"95.592","CLASSIFICATION_TYPE":"U","COUNTRY_CODE":"US","ECCENTRICITY":"0.00016260","MEAN_ANOMALY":"288.2346","NORAD_CAT_ID":"48458","RCS_SIZE":"LARGE","BSTAR":"0.00020237000000","MEAN_MOTION_DDOT":"0.0000000000000","OBJECT_NAME":"STARLINK-2698","MEAN_MOTION":"15.06400948","SEMIMAJOR_AXIS":"6925.346","INCLINATION":"53.0555","ELEMENT_SET_NO":"999","ARG_OF_PERICENTER":"71.8820","TIME_SYSTEM":"UTC"},{"PERIOD":"95.592","CENTER_NAME":"EARTH","COUNTRY_CODE":"US","CLASSIFICATION_TYPE":"U","MEAN_ANOMALY":"286.6667","ECCENTRICITY":"0.00018860","RCS_SIZE":"LARGE","NORAD_CAT_ID":"48459","BSTAR":"0.00021040000000","MEAN_MOTION_DDOT":"0.0000000000000","OBJECT_NAME":"STARLINK-2579","SEMIMAJOR_AXIS":"6925.337","MEAN_MOTION":"15.06403854","TIME_SYSTEM":"UTC","ELEMENT_SET_NO":"999","INCLINATION":"53.0520","ARG_OF_PERICENTER":"73.4529","EPHEMERIS_TYPE":"0","FILE":"3452356","REF_FRAME":"TEME","MEAN_MOTION_DOT":"0.00002854","LAUNCH_DATE":"2021-05-09","OBJECT_ID":"2021-040AH","REV_AT_EPOCH":"5693","GP_ID":"203904221","RA_OF_ASC_NODE":"310.4125","OBJECT_TYPE":"PAYLOAD","MEAN_ELEMENT_THEORY":"SGP4","TLE_LINE2":"2 48459  53.0520 310.4125 0001886  73.4529 286.6667 15.06403854 56936","APOAPSIS":"548.508","DECAY_DATE":null,"PERIAPSIS":"545.896","TLE_LINE1":"1 48459U 21040AH  22138.83691570  .00002854  00000-0  21040-3 0  9991","EPOCH":"2022-05-18T20:05:09.516480","SITE":"AFETR"}];
